ONEWEB-0645             
1 55809U 23029P   26011.93304167  .00000087  00000+0  18406-3 0  9992
2 55809  87.9214 336.0765 0001642  62.4147 297.7153 13.19726491138297
ONEWEB-0646             
1 55810U 23029Q   26011.87459895 -.00000014  00000+0 -66408-4 0  9994
2 55810  87.9226 336.0828 0001495  76.7615 283.3684 13.19726230138275
ONEWEB-0648             
1 55811U 23029R   26011.84257212  .00000256  00000+0  65600-3 0  9999
2 55811  87.9021 320.8587 0001522  43.9241 316.2009 13.14503877138850
ONEWEB-0649             
1 55812U 23029S   26011.89986787  .00000058  00000+0  11334-3 0  9996
2 55812  87.9225 336.0744 0001551  67.8438 292.2859 13.19725202138316
ONEWEB-0650             
1 55813U 23029T   26011.89513151 -.00000009  00000+0 -53968-4 0  9996
2 55813  87.9224 336.0800 0001373  69.5292 290.5988 13.19726084138287
ONEWEB-0652             
1 55814U 23029U   26011.89966619  .00000066  00000+0  14419-3 0  9996
2 55814  87.9013 320.8665 0001846  82.6856 277.4483 13.14503243138831
ONEWEB-0653             
1 55815U 23029V   26011.88380601 -.00000157  00000+0 -45698-3 0  9993
2 55815  87.9016 320.8591 0001912  77.2554 282.8789 13.14503061138862
ONEWEB-0654             
1 55816U 23029W   26011.87904703 -.00000207  00000+0 -59411-3 0  9992
2 55816  87.9017 320.8597 0002056  84.3077 275.8288 13.14503029138881
