<?xml version="1.0" encoding="UTF-8"?>
<ndm xmlns:xsi="http://www.w3.org/2001/XMLSchema-instance" xsi:noNamespaceSchemaLocation="https://sanaregistry.org/r/ndmxml_unqualified/ndmxml-2.0.0-master-2.0.xsd">
<omm id="CCSDS_OMM_VERS" version="2.0">
<header><CREATION_DATE/><ORIGINATOR/></header><body><segment><metadata><OBJECT_NAME>ONEWEB-0645</OBJECT_NAME><OBJECT_ID>2023-029P</OBJECT_ID><CENTER_NAME>EARTH</CENTER_NAME><REF_FRAME>TEME</REF_FRAME><TIME_SYSTEM>UTC</TIME_SYSTEM><MEAN_ELEMENT_THEORY>SGP4</MEAN_ELEMENT_THEORY></metadata><data><meanElements><EPOCH>2026-01-11T22:23:34.800288</EPOCH><MEAN_MOTION>13.19726491</MEAN_MOTION><ECCENTRICITY>.00016424</ECCENTRICITY><INCLINATION>87.9214</INCLINATION><RA_OF_ASC_NODE>336.0765</RA_OF_ASC_NODE><ARG_OF_PERICENTER>62.4147</ARG_OF_PERICENTER><MEAN_ANOMALY>297.7153</MEAN_ANOMALY></meanElements><tleParameters><EPHEMERIS_TYPE>0</EPHEMERIS_TYPE><CLASSIFICATION_TYPE>U</CLASSIFICATION_TYPE><NORAD_CAT_ID>55809</NORAD_CAT_ID><ELEMENT_SET_NO>999</ELEMENT_SET_NO><REV_AT_EPOCH>13829</REV_AT_EPOCH><BSTAR>.18406406E-3</BSTAR><MEAN_MOTION_DOT>.87E-6</MEAN_MOTION_DOT><MEAN_MOTION_DDOT>0</MEAN_MOTION_DDOT></tleParameters></data></segment></body></omm>
<omm id="CCSDS_OMM_VERS" version="2.0">
<header><CREATION_DATE/><ORIGINATOR/></header><body><segment><metadata><OBJECT_NAME>ONEWEB-0646</OBJECT_NAME><OBJECT_ID>2023-029Q</OBJECT_ID><CENTER_NAME>EARTH</CENTER_NAME><REF_FRAME>TEME</REF_FRAME><TIME_SYSTEM>UTC</TIME_SYSTEM><MEAN_ELEMENT_THEORY>SGP4</MEAN_ELEMENT_THEORY></metadata><data><meanElements><EPOCH>2026-01-11T20:59:25.349280</EPOCH><MEAN_MOTION>13.19726230</MEAN_MOTION><ECCENTRICITY>.00014952</ECCENTRICITY><INCLINATION>87.9226</INCLINATION><RA_OF_ASC_NODE>336.0828</RA_OF_ASC_NODE><ARG_OF_PERICENTER>76.7615</ARG_OF_PERICENTER><MEAN_ANOMALY>283.3684</MEAN_ANOMALY></meanElements><tleParameters><EPHEMERIS_TYPE>0</EPHEMERIS_TYPE><CLASSIFICATION_TYPE>U</CLASSIFICATION_TYPE><NORAD_CAT_ID>55810</NORAD_CAT_ID><ELEMENT_SET_NO>999</ELEMENT_SET_NO><REV_AT_EPOCH>13827</REV_AT_EPOCH><BSTAR>-.66408304E-4</BSTAR><MEAN_MOTION_DOT>-.14E-6</MEAN_MOTION_DOT><MEAN_MOTION_DDOT>0</MEAN_MOTION_DDOT></tleParameters></data></segment></body></omm>
<omm id="CCSDS_OMM_VERS" version="2.0">
<header><CREATION_DATE/><ORIGINATOR/></header><body><segment><metadata><OBJECT_NAME>ONEWEB-0648</OBJECT_NAME><OBJECT_ID>2023-029R</OBJECT_ID><CENTER_NAME>EARTH</CENTER_NAME><REF_FRAME>TEME</REF_FRAME><TIME_SYSTEM>UTC</TIME_SYSTEM><MEAN_ELEMENT_THEORY>SGP4</MEAN_ELEMENT_THEORY></metadata><data><meanElements><EPOCH>2026-01-11T20:13:18.231168</EPOCH><MEAN_MOTION>13.14503877</MEAN_MOTION><ECCENTRICITY>.0001522</ECCENTRICITY><INCLINATION>87.9021</INCLINATION><RA_OF_ASC_NODE>320.8587</RA_OF_ASC_NODE><ARG_OF_PERICENTER>43.9241</ARG_OF_PERICENTER><MEAN_ANOMALY>316.2009</MEAN_ANOMALY></meanElements><tleParameters><EPHEMERIS_TYPE>0</EPHEMERIS_TYPE><CLASSIFICATION_TYPE>U</CLASSIFICATION_TYPE><NORAD_CAT_ID>55811</NORAD_CAT_ID><ELEMENT_SET_NO>999</ELEMENT_SET_NO><REV_AT_EPOCH>13885</REV_AT_EPOCH><BSTAR>.65600042E-3</BSTAR><MEAN_MOTION_DOT>.256E-5</MEAN_MOTION_DOT><MEAN_MOTION_DDOT>0</MEAN_MOTION_DDOT></tleParameters></data></segment></body></omm>
<omm id="CCSDS_OMM_VERS" version="2.0">
<header><CREATION_DATE/><ORIGINATOR/></header><body><segment><metadata><OBJECT_NAME>ONEWEB-0649</OBJECT_NAME><OBJECT_ID>2023-029S</OBJECT_ID><CENTER_NAME>EARTH</CENTER_NAME><REF_FRAME>TEME</REF_FRAME><TIME_SYSTEM>UTC</TIME_SYSTEM><MEAN_ELEMENT_THEORY>SGP4</MEAN_ELEMENT_THEORY></metadata><data><meanElements><EPOCH>2026-01-11T21:35:48.583968</EPOCH><MEAN_MOTION>13.19725202</MEAN_MOTION><ECCENTRICITY>.00015511</ECCENTRICITY><INCLINATION>87.9225</INCLINATION><RA_OF_ASC_NODE>336.0744</RA_OF_ASC_NODE><ARG_OF_PERICENTER>67.8438</ARG_OF_PERICENTER><MEAN_ANOMALY>292.2859</MEAN_ANOMALY></meanElements><tleParameters><EPHEMERIS_TYPE>0</EPHEMERIS_TYPE><CLASSIFICATION_TYPE>U</CLASSIFICATION_TYPE><NORAD_CAT_ID>55812</NORAD_CAT_ID><ELEMENT_SET_NO>999</ELEMENT_SET_NO><REV_AT_EPOCH>13831</REV_AT_EPOCH><BSTAR>.11334105E-3</BSTAR><MEAN_MOTION_DOT>.58E-6</MEAN_MOTION_DOT><MEAN_MOTION_DDOT>0</MEAN_MOTION_DDOT></tleParameters></data></segment></body></omm>
<omm id="CCSDS_OMM_VERS" version="2.0">
<header><CREATION_DATE/><ORIGINATOR/></header><body><segment><metadata><OBJECT_NAME>ONEWEB-0650</OBJECT_NAME><OBJECT_ID>2023-029T</OBJECT_ID><CENTER_NAME>EARTH</CENTER_NAME><REF_FRAME>TEME</REF_FRAME><TIME_SYSTEM>UTC</TIME_SYSTEM><MEAN_ELEMENT_THEORY>SGP4</MEAN_ELEMENT_THEORY></metadata><data><meanElements><EPOCH>2026-01-11T21:28:59.362464</EPOCH><MEAN_MOTION>13.19726084</MEAN_MOTION><ECCENTRICITY>.00013738</ECCENTRICITY><INCLINATION>87.9224</INCLINATION><RA_OF_ASC_NODE>336.0800</RA_OF_ASC_NODE><ARG_OF_PERICENTER>69.5292</ARG_OF_PERICENTER><MEAN_ANOMALY>290.5988</MEAN_ANOMALY></meanElements><tleParameters><EPHEMERIS_TYPE>0</EPHEMERIS_TYPE><CLASSIFICATION_TYPE>U</CLASSIFICATION_TYPE><NORAD_CAT_ID>55813</NORAD_CAT_ID><ELEMENT_SET_NO>999</ELEMENT_SET_NO><REV_AT_EPOCH>13828</REV_AT_EPOCH><BSTAR>-.53967535E-4</BSTAR><MEAN_MOTION_DOT>-.9E-7</MEAN_MOTION_DOT><MEAN_MOTION_DDOT>0</MEAN_MOTION_DDOT></tleParameters></data></segment></body></omm>
<omm id="CCSDS_OMM_VERS" version="2.0">
<header><CREATION_DATE/><ORIGINATOR/></header><body><segment><metadata><OBJECT_NAME>ONEWEB-0652</OBJECT_NAME><OBJECT_ID>2023-029U</OBJECT_ID><CENTER_NAME>EARTH</CENTER_NAME><REF_FRAME>TEME</REF_FRAME><TIME_SYSTEM>UTC</TIME_SYSTEM><MEAN_ELEMENT_THEORY>SGP4</MEAN_ELEMENT_THEORY></metadata><data><meanElements><EPOCH>2026-01-11T21:35:31.158816</EPOCH><MEAN_MOTION>13.14503243</MEAN_MOTION><ECCENTRICITY>.00018468</ECCENTRICITY><INCLINATION>87.9013</INCLINATION><RA_OF_ASC_NODE>320.8665</RA_OF_ASC_NODE><ARG_OF_PERICENTER>82.6856</ARG_OF_PERICENTER><MEAN_ANOMALY>277.4483</MEAN_ANOMALY></meanElements><tleParameters><EPHEMERIS_TYPE>0</EPHEMERIS_TYPE><CLASSIFICATION_TYPE>U</CLASSIFICATION_TYPE><NORAD_CAT_ID>55814</NORAD_CAT_ID><ELEMENT_SET_NO>999</ELEMENT_SET_NO><REV_AT_EPOCH>13883</REV_AT_EPOCH><BSTAR>.14418563E-3</BSTAR><MEAN_MOTION_DOT>.66E-6</MEAN_MOTION_DOT><MEAN_MOTION_DDOT>0</MEAN_MOTION_DDOT></tleParameters></data></segment></body></omm>
<omm id="CCSDS_OMM_VERS" version="2.0">
<header><CREATION_DATE/><ORIGINATOR/></header><body><segment><metadata><OBJECT_NAME>ONEWEB-0653</OBJECT_NAME><OBJECT_ID>2023-029V</OBJECT_ID><CENTER_NAME>EARTH</CENTER_NAME><REF_FRAME>TEME</REF_FRAME><TIME_SYSTEM>UTC</TIME_SYSTEM><MEAN_ELEMENT_THEORY>SGP4</MEAN_ELEMENT_THEORY></metadata><data><meanElements><EPOCH>2026-01-11T21:12:40.839264</EPOCH><MEAN_MOTION>13.14503061</MEAN_MOTION><ECCENTRICITY>.00019125</ECCENTRICITY><INCLINATION>87.9016</INCLINATION><RA_OF_ASC_NODE>320.8591</RA_OF_ASC_NODE><ARG_OF_PERICENTER>77.2554</ARG_OF_PERICENTER><MEAN_ANOMALY>282.8789</MEAN_ANOMALY></meanElements><tleParameters><EPHEMERIS_TYPE>0</EPHEMERIS_TYPE><CLASSIFICATION_TYPE>U</CLASSIFICATION_TYPE><NORAD_CAT_ID>55815</NORAD_CAT_ID><ELEMENT_SET_NO>999</ELEMENT_SET_NO><REV_AT_EPOCH>13886</REV_AT_EPOCH><BSTAR>-.45698188E-3</BSTAR><MEAN_MOTION_DOT>-.157E-5</MEAN_MOTION_DOT><MEAN_MOTION_DDOT>0</MEAN_MOTION_DDOT></tleParameters></data></segment></body></omm>
<omm id="CCSDS_OMM_VERS" version="2.0">
<header><CREATION_DATE/><ORIGINATOR/></header><body><segment><metadata><OBJECT_NAME>ONEWEB-0654</OBJECT_NAME><OBJECT_ID>2023-029W</OBJECT_ID><CENTER_NAME>EARTH</CENTER_NAME><REF_FRAME>TEME</REF_FRAME><TIME_SYSTEM>UTC</TIME_SYSTEM><MEAN_ELEMENT_THEORY>SGP4</MEAN_ELEMENT_THEORY></metadata><data><meanElements><EPOCH>2026-01-11T21:05:49.663392</EPOCH><MEAN_MOTION>13.14503029</MEAN_MOTION><ECCENTRICITY>.00020567</ECCENTRICITY><INCLINATION>87.9017</INCLINATION><RA_OF_ASC_NODE>320.8597</RA_OF_ASC_NODE><ARG_OF_PERICENTER>84.3077</ARG_OF_PERICENTER><MEAN_ANOMALY>275.8288</MEAN_ANOMALY></meanElements><tleParameters><EPHEMERIS_TYPE>0</EPHEMERIS_TYPE><CLASSIFICATION_TYPE>U</CLASSIFICATION_TYPE><NORAD_CAT_ID>55816</NORAD_CAT_ID><ELEMENT_SET_NO>999</ELEMENT_SET_NO><REV_AT_EPOCH>13888</REV_AT_EPOCH><BSTAR>-.59410693E-3</BSTAR><MEAN_MOTION_DOT>-.207E-5</MEAN_MOTION_DOT><MEAN_MOTION_DDOT>0</MEAN_MOTION_DDOT></tleParameters></data></segment></body></omm>

</ndm>
